start=new Date('2022-08-19T00:00:00.000Z').valueOf();
sats=[{"BSTAR":"0.00192110000000","GP_ID":"210478104","SEMIMAJOR_AXIS":"6917.891","TLE_LINE2":"2 52540  53.2158 199.5420 0002296  54.2834 313.7347 15.08836674  1307","INCLINATION":"53.2158","FILE":"3539615","RA_OF_ASC_NODE":"199.5420","OBJECT_ID":"2022-051H","NORAD_CAT_ID":"52540","MEAN_ANOMALY":"313.7347","DECAY_DATE":null,"OBJECT_TYPE":"PAYLOAD","CENTER_NAME":"EARTH","ARG_OF_PERICENTER":"54.2834","LAUNCH_DATE":"2022-05-13","REV_AT_EPOCH":"130","MEAN_ELEMENT_THEORY":"SGP4","CLASSIFICATION_TYPE":"U","APOAPSIS":"541.344","MEAN_MOTION":"15.08836674","RCS_SIZE":"LARGE","PERIOD":"95.438","OBJECT_NAME":"STARLINK-3940","MEAN_MOTION_DOT":"0.00030416","ECCENTRICITY":"0.00022960","TIME_SYSTEM":"UTC","ELEMENT_SET_NO":"999","MEAN_MOTION_DDOT":"0.0000000000000","REF_FRAME":"TEME","PERIAPSIS":"538.167","EPHEMERIS_TYPE":"0","SITE":"AFWTR","TLE_LINE1":"1 52540U 22051H   22230.91667824  .00030416  00000-0  19211-2 0  9998","COUNTRY_CODE":"US","EPOCH":"2022-08-18T22:00:00.999936"},{"EPHEMERIS_TYPE":"0","PERIAPSIS":"538.053","EPOCH":"2022-08-18T22:00:00.999936","COUNTRY_CODE":"US","TLE_LINE1":"1 52541U 22051J   22230.91667824  .00026624  00000-0  16849-2 0  9999","SITE":"AFWTR","MEAN_MOTION_DOT":"0.00026624","PERIOD":"95.438","ECCENTRICITY":"0.00024780","OBJECT_NAME":"STARLINK-3845","APOAPSIS":"541.481","MEAN_MOTION":"15.08832967","RCS_SIZE":"LARGE","REF_FRAME":"TEME","ELEMENT_SET_NO":"999","TIME_SYSTEM":"UTC","MEAN_MOTION_DDOT":"0.0000000000000","LAUNCH_DATE":"2022-05-13","ARG_OF_PERICENTER":"50.8303","CENTER_NAME":"EARTH","REV_AT_EPOCH":"130","OBJECT_TYPE":"PAYLOAD","CLASSIFICATION_TYPE":"U","MEAN_ELEMENT_THEORY":"SGP4","RA_OF_ASC_NODE":"204.5526","FILE":"3539615","GP_ID":"210478376","SEMIMAJOR_AXIS":"6917.902","BSTAR":"0.00168490000000","INCLINATION":"53.2136","TLE_LINE2":"2 52541  53.2136 204.5526 0002478  50.8303 129.7013 15.08832967  1309","DECAY_DATE":null,"MEAN_ANOMALY":"129.7013","NORAD_CAT_ID":"52541","OBJECT_ID":"2022-051J"},{"RA_OF_ASC_NODE":"199.5251","FILE":"3539615","BSTAR":"0.00186050000000","SEMIMAJOR_AXIS":"6917.885","GP_ID":"210477557","TLE_LINE2":"2 52542  53.2165 199.5251 0002030  55.2111 332.8224 15.08838542  1306","INCLINATION":"53.2165","MEAN_ANOMALY":"332.8224","DECAY_DATE":null,"OBJECT_ID":"2022-051K","NORAD_CAT_ID":"52542","CENTER_NAME":"EARTH","ARG_OF_PERICENTER":"55.2111","LAUNCH_DATE":"2022-05-13","REV_AT_EPOCH":"130","OBJECT_TYPE":"PAYLOAD","CLASSIFICATION_TYPE":"U","MEAN_ELEMENT_THEORY":"SGP4","PERIOD":"95.438","ECCENTRICITY":"0.00020300","MEAN_MOTION_DOT":"0.00029445","OBJECT_NAME":"STARLINK-3937","APOAPSIS":"541.154","RCS_SIZE":"LARGE","MEAN_MOTION":"15.08838542","REF_FRAME":"TEME","TIME_SYSTEM":"UTC","ELEMENT_SET_NO":"999","MEAN_MOTION_DDOT":"0.0000000000000","PERIAPSIS":"538.346","EPHEMERIS_TYPE":"0","COUNTRY_CODE":"US","EPOCH":"2022-08-18T22:00:00.999936","SITE":"AFWTR","TLE_LINE1":"1 52542U 22051K   22230.91667824  .00029445  00000-0  18605-2 0  9996"},{"PERIAPSIS":"538.179","EPHEMERIS_TYPE":"0","SITE":"AFWTR","TLE_LINE1":"1 52543U 22051L   22230.91667824  .00021020  00000-0  13344-2 0  9993","COUNTRY_CODE":"US","EPOCH":"2022-08-18T22:00:00.999936","MEAN_MOTION":"15.08852606","RCS_SIZE":"LARGE","APOAPSIS":"541.235","MEAN_MOTION_DOT":"0.00021020","PERIOD":"95.437","ECCENTRICITY":"0.00022090","OBJECT_NAME":"STARLINK-3926","MEAN_MOTION_DDOT":"0.0000000000000","TIME_SYSTEM":"UTC","ELEMENT_SET_NO":"999","REF_FRAME":"TEME","OBJECT_TYPE":"PAYLOAD","REV_AT_EPOCH":"130","CENTER_NAME":"EARTH","LAUNCH_DATE":"2022-05-13","ARG_OF_PERICENTER":"52.8326","MEAN_ELEMENT_THEORY":"SGP4","CLASSIFICATION_TYPE":"U","TLE_LINE2":"2 52543  53.2174 199.5482 0002209  52.8326 275.1705 15.08852606  1302","INCLINATION":"53.2174","BSTAR":"0.00133440000000","SEMIMAJOR_AXIS":"6917.842","GP_ID":"210477830","FILE":"3539615","RA_OF_ASC_NODE":"199.5482","OBJECT_ID":"2022-051L","NORAD_CAT_ID":"52543","MEAN_ANOMALY":"275.1705","DECAY_DATE":null},{"EPHEMERIS_TYPE":"0","PERIAPSIS":"538.219","EPOCH":"2022-08-18T22:00:00.999936","COUNTRY_CODE":"US","TLE_LINE1":"1 52544U 22051M   22230.91667824  .00026660  00000-0  16874-2 0  9990","SITE":"AFWTR","PERIOD":"95.438","MEAN_MOTION_DOT":"0.00026660","OBJECT_NAME":"STARLINK-3944","ECCENTRICITY":"0.00022660","MEAN_MOTION":"15.08826569","RCS_SIZE":"LARGE","APOAPSIS":"541.354","REF_FRAME":"TEME","MEAN_MOTION_DDOT":"0.0000000000000","ELEMENT_SET_NO":"999","TIME_SYSTEM":"UTC","REV_AT_EPOCH":"130","LAUNCH_DATE":"2022-05-13","ARG_OF_PERICENTER":"50.3869","CENTER_NAME":"EARTH","OBJECT_TYPE":"PAYLOAD","CLASSIFICATION_TYPE":"U","MEAN_ELEMENT_THEORY":"SGP4","FILE":"3539615","RA_OF_ASC_NODE":"204.5481","INCLINATION":"53.2162","TLE_LINE2":"2 52544  53.2162 204.5481 0002266  50.3869 170.0579 15.08826569  1305","GP_ID":"210477694","SEMIMAJOR_AXIS":"6917.921","BSTAR":"0.00168740000000","DECAY_DATE":null,"MEAN_ANOMALY":"170.0579","NORAD_CAT_ID":"52544","OBJECT_ID":"2022-051M"},{"EPHEMERIS_TYPE":"0","PERIAPSIS":"538.191","TLE_LINE1":"1 52545U 22051N   22230.91667824  .00030816  00000-0  19454-2 0  9996","SITE":"AFWTR","EPOCH":"2022-08-18T22:00:00.999936","COUNTRY_CODE":"US","APOAPSIS":"541.252","RCS_SIZE":"LARGE","MEAN_MOTION":"15.08847788","PERIOD":"95.437","ECCENTRICITY":"0.00022120","MEAN_MOTION_DOT":"0.00030816","OBJECT_NAME":"STARLINK-3939","ELEMENT_SET_NO":"999","TIME_SYSTEM":"UTC","MEAN_MOTION_DDOT":"0.0000000000000","REF_FRAME":"TEME","OBJECT_TYPE":"PAYLOAD","ARG_OF_PERICENTER":"54.4698","LAUNCH_DATE":"2022-05-13","CENTER_NAME":"EARTH","REV_AT_EPOCH":"130","MEAN_ELEMENT_THEORY":"SGP4","CLASSIFICATION_TYPE":"U","SEMIMAJOR_AXIS":"6917.857","GP_ID":"210478511","BSTAR":"0.00194540000000","INCLINATION":"53.2165","TLE_LINE2":"2 52545  53.2165 199.5441 0002212  54.4698 293.5079 15.08847788  1306","RA_OF_ASC_NODE":"199.5441","FILE":"3539615","NORAD_CAT_ID":"52545","OBJECT_ID":"2022-051N","DECAY_DATE":null,"MEAN_ANOMALY":"293.5079"},{"COUNTRY_CODE":"US","EPOCH":"2022-08-18T22:00:00.999936","SITE":"AFWTR","TLE_LINE1":"1 52546U 22051P   22230.91667824  .00027669  00000-0  17495-2 0  9992","PERIAPSIS":"538.215","EPHEMERIS_TYPE":"0","REF_FRAME":"TEME","TIME_SYSTEM":"UTC","ELEMENT_SET_NO":"999","MEAN_MOTION_DDOT":"0.0000000000000","PERIOD":"95.437","MEAN_MOTION_DOT":"0.00027669","OBJECT_NAME":"STARLINK-3948","ECCENTRICITY":"0.00021920","APOAPSIS":"541.247","MEAN_MOTION":"15.08844717","RCS_SIZE":"LARGE","CLASSIFICATION_TYPE":"U","MEAN_ELEMENT_THEORY":"SGP4","CENTER_NAME":"EARTH","ARG_OF_PERICENTER":"57.1566","LAUNCH_DATE":"2022-05-13","REV_AT_EPOCH":"130","OBJECT_TYPE":"PAYLOAD","MEAN_ANOMALY":"5.6543","DECAY_DATE":null,"OBJECT_ID":"2022-051P","NORAD_CAT_ID":"52546","RA_OF_ASC_NODE":"199.5247","FILE":"3539615","BSTAR":"0.00174950000000","SEMIMAJOR_AXIS":"6917.866","GP_ID":"210477968","TLE_LINE2":"2 52546  53.2171 199.5247 0002192  57.1566   5.6543 15.08844717  1306","INCLINATION":"53.2171"},{"PERIOD":"95.438","OBJECT_NAME":"STARLINK-3869","MEAN_MOTION_DOT":"0.00027578","ECCENTRICITY":"0.00023140","APOAPSIS":"541.374","RCS_SIZE":"LARGE","MEAN_MOTION":"15.08830963","REF_FRAME":"TEME","ELEMENT_SET_NO":"999","TIME_SYSTEM":"UTC","MEAN_MOTION_DDOT":"0.0000000000000","EPHEMERIS_TYPE":"0","PERIAPSIS":"538.172","EPOCH":"2022-08-18T22:00:00.999936","COUNTRY_CODE":"US","TLE_LINE1":"1 52547U 22051Q   22230.91667824  .00027578  00000-0  17445-2 0  9997","SITE":"AFWTR","RA_OF_ASC_NODE":"204.5469","FILE":"3539615","GP_ID":"210478241","SEMIMAJOR_AXIS":"6917.908","BSTAR":"0.00174450000000","INCLINATION":"53.2154","TLE_LINE2":"2 52547  53.2154 204.5469 0002314  49.0206 151.5197 15.08830963  1302","DECAY_DATE":null,"MEAN_ANOMALY":"151.5197","NORAD_CAT_ID":"52547","OBJECT_ID":"2022-051Q","ARG_OF_PERICENTER":"49.0206","LAUNCH_DATE":"2022-05-13","CENTER_NAME":"EARTH","REV_AT_EPOCH":"130","OBJECT_TYPE":"PAYLOAD","CLASSIFICATION_TYPE":"U","MEAN_ELEMENT_THEORY":"SGP4"},{"MEAN_MOTION_DOT":"-0.00015557","PERIOD":"95.436","OBJECT_NAME":"STARLINK-3931","ECCENTRICITY":"0.00015680","MEAN_MOTION":"15.08859707","RCS_SIZE":"LARGE","APOAPSIS":"540.770","REF_FRAME":"TEME","MEAN_MOTION_DDOT":"0.0000000000000","ELEMENT_SET_NO":"999","TIME_SYSTEM":"UTC","EPHEMERIS_TYPE":"0","PERIAPSIS":"538.600","EPOCH":"2022-08-18T22:00:00.999936","COUNTRY_CODE":"US","TLE_LINE1":"1 52548U 22051R   22230.91667824 -.00015557  00000-0 -96093-3 0  9991","SITE":"AFWTR","RA_OF_ASC_NODE":"199.5224","FILE":"3539615","INCLINATION":"53.2170","TLE_LINE2":"2 52548  53.2170 199.5224 0001568  76.8708  71.1754 15.08859707  1301","GP_ID":"210478105","SEMIMAJOR_AXIS":"6917.820","BSTAR":"-0.00096093000000","DECAY_DATE":null,"MEAN_ANOMALY":"71.1754","NORAD_CAT_ID":"52548","OBJECT_ID":"2022-051R","REV_AT_EPOCH":"130","ARG_OF_PERICENTER":"76.8708","LAUNCH_DATE":"2022-05-13","CENTER_NAME":"EARTH","OBJECT_TYPE":"PAYLOAD","CLASSIFICATION_TYPE":"U","MEAN_ELEMENT_THEORY":"SGP4"},{"CENTER_NAME":"EARTH","LAUNCH_DATE":"2022-05-13","ARG_OF_PERICENTER":"55.3274","REV_AT_EPOCH":"130","OBJECT_TYPE":"PAYLOAD","CLASSIFICATION_TYPE":"U","MEAN_ELEMENT_THEORY":"SGP4","FILE":"3539615","RA_OF_ASC_NODE":"199.5249","BSTAR":"0.00182340000000","SEMIMAJOR_AXIS":"6917.897","GP_ID":"210478377","TLE_LINE2":"2 52549  53.2156 199.5249 0002121  55.3274 352.6793 15.08834660  1300","INCLINATION":"53.2156","MEAN_ANOMALY":"352.6793","DECAY_DATE":null,"OBJECT_ID":"2022-051S","NORAD_CAT_ID":"52549","PERIAPSIS":"538.294","EPHEMERIS_TYPE":"0","COUNTRY_CODE":"US","EPOCH":"2022-08-18T22:00:00.999936","SITE":"AFWTR","TLE_LINE1":"1 52549U 22051S   22230.91667824  .00028847  00000-0  18234-2 0  9996","OBJECT_NAME":"STARLINK-3935","PERIOD":"95.438","MEAN_MOTION_DOT":"0.00028847","ECCENTRICITY":"0.00021210","APOAPSIS":"541.229","RCS_SIZE":"LARGE","MEAN_MOTION":"15.08834660","REF_FRAME":"TEME","TIME_SYSTEM":"UTC","ELEMENT_SET_NO":"999","MEAN_MOTION_DDOT":"0.0000000000000"}];
